STARLINK-3452           
1 51744U 22016AG  24133.51256106 -.00029446  00000+0 -18452-2 0  9999
2 51744  53.2180  69.7327 0001577  87.4383 272.6789 15.08728697122996
STARLINK-3449           
1 51745U 22016AH  24133.52355104 -.00010117  00000+0 -61898-3 0  9997
2 51745  53.2170  69.6489 0001295  54.3076 305.8036 15.08811041122993
STARLINK-3502           
1 51746U 22016AJ  24133.07648982 -.00061166  00000+0 -38690-2 0  9990
2 51746  53.2193  61.6779 0001954  84.3952 275.7263 15.08734857123066
STARLINK-3446           
1 51747U 22016AK  24133.51718614 -.00006457  00000+0 -38867-3 0  9999
2 51747  53.2186  69.7348 0000721  74.4959 285.6113 15.08777280122990
STARLINK-3501           
1 51748U 22016AL  24133.53188813 -.00030651  00000+0 -19216-2 0  9993
2 51748  53.2182  59.6214 0001508  95.0906 265.0258 15.08733147123135
STARLINK-3451           
1 51749U 22016AM  24133.56041636 -.00005090  00000+0 -30222-3 0  9998
2 51749  53.2206  69.6735 0001522 105.2359 254.8801 15.08805924124105
STARLINK-3505           
1 51750U 22016AN  24133.52540112 -.00037932  00000+0 -23799-2 0  9999
2 51750  53.2183  59.6561 0000961  84.9575 275.1526 15.08809342123136
STARLINK-3506           
1 51751U 22016AP  24133.27154898 -.00005847  00000+0 -35110-3 0  9995
2 51751  53.2181  60.8002 0000852 109.8860 250.2224 15.08683367123093
STARLINK-3511           
1 51752U 22016AQ  24133.51441643 -.00021220  00000+0 -13215-2 0  9994
2 51752  53.2176  59.6284 0001376  80.3098 279.8049 15.08774589124252
STARLINK-3507           
1 51753U 22016AR  24133.52913890 -.00027460  00000+0 -17181-2 0  9992
2 51753  53.2179  59.6454 0001267  81.8164 278.2971 15.08749386123134
STARLINK-3457           
1 51754U 22016AS  24133.49136633 -.00012242  00000+0 -75508-3 0  9991
2 51754  53.2185  59.5608 0001366  94.6248 265.4900 15.08710132123134
STARLINK-3460           
1 51755U 22016AT  24133.51715605 -.00023905  00000+0 -14923-2 0  9998
2 51755  53.2173  59.6871 0001314 109.5884 250.5250 15.08756982123136
STARLINK-3513           
1 51756U 22016AU  24133.48772542 -.00032224  00000+0 -20215-2 0  9993
2 51756  53.2178  59.8154 0001083  84.0393 276.0723 15.08735302123134
STARLINK-3459           
1 51757U 22016AV  24133.48500802 -.00024622  00000+0 -15408-2 0  9993
2 51757  53.2184  59.8423 0001550 115.9528 244.1623 15.08683788123139
STARLINK-3458           
1 51758U 22016AW  24133.21168739 -.00030521  00000+0 -19116-2 0  9999
2 51758  53.2180  61.0126 0000990  85.0561 275.0544 15.08767266124233
STARLINK-3456           
1 51759U 22016AX  24133.21537335 -.00017575  00000+0 -10903-2 0  9991
2 51759  53.2176  61.0407 0001342 101.2808 258.8335 15.08790716123094
STARLINK-3622           
1 51768U 22017A   24133.57697765 -.00018596  00000+0 -11562-2 0  9991
2 51768  53.2170  89.4130 0001406  98.5090 261.6062 15.08749441123488
STARLINK-3621           
1 51769U 22017B   24133.56960429 -.00019455  00000+0 -12105-2 0  9990
2 51769  53.2179  89.4467 0001462  95.0224 265.0935 15.08751769122048
STARLINK-3612           
1 51770U 22017C   24133.57328180 -.00019148  00000+0 -11907-2 0  9993
2 51770  53.2175  89.4292 0001342  90.9416 269.1730 15.08763560122057
STARLINK-3614           
1 51771U 22017D   24133.56595038 -.00030928  00000+0 -19401-2 0  9997
2 51771  53.2168  89.4571 0001571  92.5865 267.5307 15.08715953123494
STARLINK-3623           
1 51772U 22017E   24133.29358190 -.00019093  00000+0 -11866-2 0  9991
2 51772  53.2171  90.6874 0001048  97.1592 262.9519 15.08782431121998
STARLINK-3624           
1 51773U 22017F   24133.29821073 -.00016360  00000+0 -10136-2 0  9990
2 51773  53.2164  90.6361 0001392  79.5754 280.5395 15.08788029122008
STARLINK-3629           
1 51774U 22017G   24133.28621737 -.00012345  00000+0 -75969-3 0  9990
2 51774  53.2178  90.7190 0001909  78.2061 281.9145 15.08800736121968
STARLINK-3620           
1 51775U 22017H   24133.29723697 -.00060468  00000+0 -38233-2 0  9991
2 51775  53.2186  90.6697 0001604  90.1178 269.9998 15.08744715122005
STARLINK-3608           
1 51776U 22017J   24133.28253894 -.00017233  00000+0 -10689-2 0  9995
2 51776  53.2175  90.7358 0001330  96.9305 263.1838 15.08783710121962
STARLINK-3625           
1 51777U 22017K   24133.28717725 -.00023387  00000+0 -14589-2 0  9994
2 51777  53.2176  90.6908 0001060  80.6690 279.4422 15.08771155121993
STARLINK-3615           
1 51778U 22017L   24133.15832182 -.00012796  00000+0 -78840-3 0  9999
2 51778  53.2182  81.1669 0001238  99.2025 260.9108 15.08789486121931
STARLINK-3611           
1 51779U 22017M   24133.61470611 -.00014847  00000+0 -91807-3 0  9993
2 51779  53.2169  89.2960 0001342  81.3574 278.7570 15.08785742122018
STARLINK-3617           
1 51780U 22017N   24133.59903422 -.00023499  00000+0 -14666-2 0  9993
2 51780  53.2179  89.3085 0001353 109.3461 250.7678 15.08756002121866
STARLINK-3580           
1 51781U 22017P   24133.60271437 -.00023408  00000+0 -14607-2 0  9995
2 51781  53.2193  89.2638 0001311 106.0250 254.0887 15.08758766121868
STARLINK-3616           
1 51782U 22017Q   24133.30739717 -.00017939  00000+0 -11136-2 0  9999
2 51782  53.2157 100.7775 0001164  88.8246 271.2879 15.08782620121585
STARLINK-3628           
1 51783U 22017R   24133.60737988 -.00031582  00000+0 -19813-2 0  9991
2 51783  53.2182  89.3340 0001736  79.8162 280.3026 15.08722245121869
STARLINK-3632           
1 51784U 22017S   24133.22274375 -.00015084  00000+0 -93294-3 0  9991
2 51784  53.2164 101.0075 0001609  81.0627 279.0547 15.08789162121669
STARLINK-3646           
1 51785U 22017T   24133.59632085 -.00025559  00000+0 -15977-2 0  9997
2 51785  53.2171  89.3044 0001403 139.5747 220.5349 15.08744232121868
STARLINK-3638           
1 51786U 22017U   24133.61284186 -.00021114  00000+0 -13153-2 0  9993
2 51786  53.2173  99.2586 0001814 111.7020 248.4166 15.08758893121723
STARLINK-3619           
1 51787U 22017V   24133.23009779 -.00022600  00000+0 -14084-2 0  9990
2 51787  53.2175 100.9762 0002071  56.3303 303.7886 15.08784901123305
STARLINK-3641           
1 51788U 22017W   24133.60178118 -.00012814  00000+0 -78945-3 0  9999
2 51788  53.2164  99.3059 0001559  77.7597 282.3570 15.08792833123367
STARLINK-3639           
1 51789U 22017X   24133.28531524 -.00016422  00000+0 -10180-2 0  9993
2 51789  53.2175 100.7318 0001440  98.0440 262.0716 15.08770367121674
STARLINK-3631           
1 51790U 22017Y   24133.59810822 -.00011552  00000+0 -70991-3 0  9996
2 51790  53.2158  99.3184 0001510  78.2429 281.8732 15.08788211123414
STARLINK-3602           
1 51791U 22017Z   24133.60919356 -.00007680  00000+0 -46586-3 0  9991
2 51791  53.2175  99.2739 0001565 113.4415 246.6742 15.08769960123360
STARLINK-3626           
1 51792U 22017AA  24133.32579560 -.00012601  00000+0 -77630-3 0  9993
2 51792  53.2183 100.5431 0001643  99.3656 260.7522 15.08779929123371
STARLINK-3633           
1 51793U 22017AB  24133.60643745 -.00010378  00000+0 -63582-3 0  9992
2 51793  53.2178  99.2928 0001809  97.3980 262.7218 15.08785715123412
STARLINK-3573           
1 51794U 22017AC  24133.18595259 -.00015041  00000+0 -93050-3 0  9997
2 51794  53.2164 101.1691 0001647  82.5879 277.5300 15.08777312123309
STARLINK-3586           
1 51795U 22017AD  24133.60549538 -.00012177  00000+0 -74927-3 0  9993
2 51795  53.2150  99.4794 0001388  73.2822 286.8322 15.08791402123364
STARLINK-3630           
1 51796U 22017AE  24133.29729017 -.00011724  00000+0 -72075-3 0  9990
2 51796  53.2170 100.5646 0001557  75.7773 284.3392 15.08788004123316
STARLINK-3627           
1 51797U 22017AF  24133.58334491  .00308848  00000+0  53796-2 0  9993
2 51797  53.1522  39.7790 0005116 107.4867   9.9891 15.49117688  5966
STARLINK-3634           
1 51798U 22017AG  24133.30369638 -.00031280  00000+0 -19596-2 0  9990
2 51798  53.2159 100.6423 0001274  92.7854 267.3284 15.08769656123362
STARLINK-3637           
1 51799U 22017AH  24133.31472727 -.00052291  00000+0 -32988-2 0  9991
2 51799  53.2165 100.5933 0001320  80.6045 279.5096 15.08759008123327
STARLINK-3592           
1 51801U 22017AK  24133.31105614 -.00014556  00000+0 -89936-3 0  9991
2 51801  53.2155 100.6128 0001186  78.4953 281.6172 15.08798068123328
STARLINK-3557           
1 51802U 22017AL  24133.19698672 -.00014441  00000+0 -89259-3 0  9990
2 51802  53.2186 101.1102 0001657  97.3563 262.7617 15.08776390123307
STARLINK-3544           
1 51803U 22017AM  24133.30002559 -.00021825  00000+0 -13600-2 0  9997
2 51803  53.2163 100.6595 0001322  81.5966 278.5176 15.08768975123310
STARLINK-3601           
1 51804U 22017AN  24133.57788143 -.00019890  00000+0 -12377-2 0  9996
2 51804  53.2197  79.4154 0001370  85.4781 274.6368 15.08762191123597
STARLINK-3605           
1 51805U 22017AP  24133.58156029 -.00022589  00000+0 -14087-2 0  9999
2 51805  53.2186  79.4723 0001609 124.9006 235.2137 15.08761142123684
STARLINK-3606           
1 51807U 22017AR  24133.59534892 -.00014659  00000+0 -90618-3 0  9994
2 51807  53.2166  89.3342 0001623  99.2955 260.8221 15.08783618123550
STARLINK-3609           
1 51808U 22017AS  24133.58064857 -.00017895  00000+0 -11115-2 0  9992
2 51808  53.2171  89.3995 0000952  90.4770 269.6331 15.08761273123409
STARLINK-3607           
1 51809U 22017AT  24133.58799665 -.00024665  00000+0 -15407-2 0  9996
2 51809  53.2183  89.3309 0001525 121.3462 238.7679 15.08751678123502
STARLINK-3613           
1 51810U 22017AU  24133.55949668 -.00026634  00000+0 -16653-2 0  9997
2 51810  53.2176  79.7128 0001685 125.3572 234.7578 15.08757995123514
STARLINK-3569           
1 51811U 22017AV  24133.58430167 -.00013163  00000+0 -81161-3 0  9990
2 51811  53.2181  89.3846 0001084 138.6907 221.4167 15.08790292123409
STARLINK-3610           
1 51812U 22017AW  24133.12888361 -.00040498  00000+0 -25451-2 0  9994
2 51812  53.2172  81.4282 0001619 100.8724 259.2450 15.08778704123452
